start=new Date('2022-01-31T00:00:00.000Z').valueOf();
sats=[{"PERIAPSIS":"546.003","MEAN_MOTION":"15.06421685","OBJECT_TYPE":"PAYLOAD","CENTER_NAME":"EARTH","REF_FRAME":"TEME","RCS_SIZE":"LARGE","OBJECT_ID":"2021-041AY","MEAN_ANOMALY":"290.4487","PERIOD":"95.591","TLE_LINE1":"1 48599U 21041AY  22030.91630593  .00004634  00000-0  32957-3 0  9992","FILE":"3287903","OBJECT_NAME":"STARLINK-2274","LAUNCH_DATE":"2021-05-15","CLASSIFICATION_TYPE":"U","MEAN_MOTION_DDOT":"0.0000000000000","COUNTRY_CODE":"US","REV_AT_EPOCH":"4078","TLE_LINE2":"2 48599  53.0565   4.8632 0001652  69.6679 290.4487 15.06421685 40782","BSTAR":"0.00032957000000","ECCENTRICITY":"0.00016520","ELEMENT_SET_NO":"999","NORAD_CAT_ID":"48599","SEMIMAJOR_AXIS":"6925.282","MEAN_ELEMENT_THEORY":"SGP4","EPOCH":"2022-01-30T21:59:28.832352","RA_OF_ASC_NODE":"4.8632","INCLINATION":"53.0565","EPHEMERIS_TYPE":"0","APOAPSIS":"548.291","ARG_OF_PERICENTER":"69.6679","TIME_SYSTEM":"UTC","DECAY_DATE":null,"SITE":"AFETR","GP_ID":"194984530","MEAN_MOTION_DOT":"0.00004634"},{"COUNTRY_CODE":"US","TLE_LINE2":"2 48600  53.0556  20.8854 0001471  69.5740 290.5406 15.06393734 40534","REV_AT_EPOCH":"4053","BSTAR":"0.00014958000000","ELEMENT_SET_NO":"999","ECCENTRICITY":"0.00014710","NORAD_CAT_ID":"48600","SEMIMAJOR_AXIS":"6925.368","MEAN_ELEMENT_THEORY":"SGP4","EPOCH":"2022-01-30T16:31:06.219552","RA_OF_ASC_NODE":"20.8854","INCLINATION":"53.0556","DECAY_DATE":null,"APOAPSIS":"548.251","EPHEMERIS_TYPE":"0","ARG_OF_PERICENTER":"69.5740","TIME_SYSTEM":"UTC","GP_ID":"194984780","SITE":"AFETR","MEAN_MOTION_DOT":"0.00001947","MEAN_MOTION":"15.06393734","PERIAPSIS":"546.214","REF_FRAME":"TEME","OBJECT_TYPE":"PAYLOAD","CENTER_NAME":"EARTH","RCS_SIZE":"LARGE","MEAN_ANOMALY":"290.5406","OBJECT_ID":"2021-041AZ","FILE":"3287903","OBJECT_NAME":"STARLINK-2275","TLE_LINE1":"1 48600U 21041AZ  22030.68826643  .00001947  00000-0  14958-3 0  9997","PERIOD":"95.593","LAUNCH_DATE":"2021-05-15","CLASSIFICATION_TYPE":"U","MEAN_MOTION_DDOT":"0.0000000000000"},{"RCS_SIZE":"LARGE","OBJECT_ID":"2021-041BB","MEAN_ANOMALY":"300.2564","FILE":"3287903","OBJECT_NAME":"STARLINK-2713","TLE_LINE1":"1 48602U 21041BB  22030.61775879  .00001062  00000-0  90175-4 0  9990","PERIOD":"95.592","PERIAPSIS":"546.172","MEAN_MOTION":"15.06398349","REF_FRAME":"TEME","OBJECT_TYPE":"PAYLOAD","CENTER_NAME":"EARTH","CLASSIFICATION_TYPE":"U","MEAN_MOTION_DDOT":"0.0000000000000","LAUNCH_DATE":"2021-05-15","ELEMENT_SET_NO":"999","BSTAR":"0.00009017500000","ECCENTRICITY":"0.00015110","SEMIMAJOR_AXIS":"6925.354","NORAD_CAT_ID":"48602","MEAN_ELEMENT_THEORY":"SGP4","EPOCH":"2022-01-30T14:49:34.359456","COUNTRY_CODE":"US","REV_AT_EPOCH":"4072","TLE_LINE2":"2 48602  53.0536   6.2156 0001511  59.8575 300.2564 15.06398349 40722","GP_ID":"194985532","SITE":"AFETR","MEAN_MOTION_DOT":"0.00001062","RA_OF_ASC_NODE":"6.2156","INCLINATION":"53.0536","DECAY_DATE":null,"APOAPSIS":"548.265","ARG_OF_PERICENTER":"59.8575","EPHEMERIS_TYPE":"0","TIME_SYSTEM":"UTC"},{"COUNTRY_CODE":"US","TLE_LINE2":"2 48603  53.0549 359.8176 0001596  70.2721 289.8440 15.06396613 40850","REV_AT_EPOCH":"4085","BSTAR":"0.00011535000000","ELEMENT_SET_NO":"999","ECCENTRICITY":"0.00015960","SEMIMAJOR_AXIS":"6925.359","NORAD_CAT_ID":"48603","MEAN_ELEMENT_THEORY":"SGP4","EPOCH":"2022-01-30T22:17:23.456544","RA_OF_ASC_NODE":"359.8176","INCLINATION":"53.0549","DECAY_DATE":null,"APOAPSIS":"548.329","ARG_OF_PERICENTER":"70.2721","EPHEMERIS_TYPE":"0","TIME_SYSTEM":"UTC","GP_ID":"194985283","SITE":"AFETR","MEAN_MOTION_DOT":"0.00001437","MEAN_MOTION":"15.06396613","PERIAPSIS":"546.119","REF_FRAME":"TEME","OBJECT_TYPE":"PAYLOAD","CENTER_NAME":"EARTH","RCS_SIZE":"LARGE","MEAN_ANOMALY":"289.8440","OBJECT_ID":"2021-041BC","FILE":"3287903","OBJECT_NAME":"STARLINK-2714","PERIOD":"95.592","TLE_LINE1":"1 48603U 21041BC  22030.92874371  .00001437  00000-0  11535-3 0  9990","LAUNCH_DATE":"2021-05-15","CLASSIFICATION_TYPE":"U","MEAN_MOTION_DDOT":"0.0000000000000"},{"CLASSIFICATION_TYPE":"U","MEAN_MOTION_DDOT":"0.0000000000000","LAUNCH_DATE":"2021-05-15","MEAN_ANOMALY":"291.5796","OBJECT_ID":"2021-041BD","RCS_SIZE":"LARGE","PERIOD":"95.592","TLE_LINE1":"1 48604U 21041BD  22030.73156356  .00001110  00000-0  93388-4 0  9991","OBJECT_NAME":"STARLINK-2757","FILE":"3287903","PERIAPSIS":"546.126","MEAN_MOTION":"15.06399568","CENTER_NAME":"EARTH","OBJECT_TYPE":"PAYLOAD","REF_FRAME":"TEME","SITE":"AFETR","GP_ID":"194984031","MEAN_MOTION_DOT":"0.00001110","INCLINATION":"53.0568","RA_OF_ASC_NODE":"30.7045","TIME_SYSTEM":"UTC","EPHEMERIS_TYPE":"0","APOAPSIS":"548.304","ARG_OF_PERICENTER":"68.5361","DECAY_DATE":null,"NORAD_CAT_ID":"48604","SEMIMAJOR_AXIS":"6925.350","MEAN_ELEMENT_THEORY":"SGP4","ECCENTRICITY":"0.00015730","BSTAR":"0.00009338800000","ELEMENT_SET_NO":"999","EPOCH":"2022-01-30T17:33:27.091584","REV_AT_EPOCH":"4040","TLE_LINE2":"2 48604  53.0568  30.7045 0001573  68.5361 291.5796 15.06399568 40404","COUNTRY_CODE":"US"},{"MEAN_MOTION_DOT":"0.00001130","SITE":"AFETR","GP_ID":"194985037","TIME_SYSTEM":"UTC","ARG_OF_PERICENTER":"80.1139","APOAPSIS":"548.334","EPHEMERIS_TYPE":"0","DECAY_DATE":null,"RA_OF_ASC_NODE":"6.2165","INCLINATION":"53.0565","EPOCH":"2022-01-30T14:48:13.530528","SEMIMAJOR_AXIS":"6925.346","MEAN_ELEMENT_THEORY":"SGP4","NORAD_CAT_ID":"48638","BSTAR":"0.00009473000000","ELEMENT_SET_NO":"999","ECCENTRICITY":"0.00016220","REV_AT_EPOCH":"3783","TLE_LINE2":"2 48638  53.0565   6.2165 0001622  80.1139 280.0033 15.06400935 37838","COUNTRY_CODE":"US","MEAN_MOTION_DDOT":"0.0000000000000","CLASSIFICATION_TYPE":"U","LAUNCH_DATE":"2021-05-26","PERIOD":"95.592","TLE_LINE1":"1 48638U 21044A   22030.61682327  .00001130  00000-0  94730-4 0  9994","OBJECT_NAME":"STARLINK-2758","FILE":"3287903","MEAN_ANOMALY":"280.0033","OBJECT_ID":"2021-044A","RCS_SIZE":"LARGE","CENTER_NAME":"EARTH","OBJECT_TYPE":"PAYLOAD","REF_FRAME":"TEME","PERIAPSIS":"546.087","MEAN_MOTION":"15.06400935"},{"RCS_SIZE":"LARGE","MEAN_ANOMALY":"293.1698","OBJECT_ID":"2021-044B","FILE":"3287903","OBJECT_NAME":"STARLINK-2739","TLE_LINE1":"1 48639U 21044B   22030.93380400  .00001283  00000-0  10497-3 0  9993","PERIOD":"95.592","MEAN_MOTION":"15.06405380","PERIAPSIS":"546.142","REF_FRAME":"TEME","OBJECT_TYPE":"PAYLOAD","CENTER_NAME":"EARTH","CLASSIFICATION_TYPE":"U","MEAN_MOTION_DDOT":"0.0000000000000","LAUNCH_DATE":"2021-05-26","BSTAR":"0.00010497000000","ECCENTRICITY":"0.00015240","ELEMENT_SET_NO":"999","SEMIMAJOR_AXIS":"6925.332","NORAD_CAT_ID":"48639","MEAN_ELEMENT_THEORY":"SGP4","EPOCH":"2022-01-30T22:24:40.665600","COUNTRY_CODE":"US","REV_AT_EPOCH":"3788","TLE_LINE2":"2 48639  53.0583   4.7867 0001524  66.9451 293.1698 15.06405380 37887","GP_ID":"194985787","SITE":"AFETR","MEAN_MOTION_DOT":"0.00001283","INCLINATION":"53.0583","RA_OF_ASC_NODE":"4.7867","DECAY_DATE":null,"APOAPSIS":"548.252","EPHEMERIS_TYPE":"0","ARG_OF_PERICENTER":"66.9451","TIME_SYSTEM":"UTC"},{"PERIAPSIS":"546.220","MEAN_MOTION":"15.06393710","OBJECT_TYPE":"PAYLOAD","CENTER_NAME":"EARTH","REF_FRAME":"TEME","RCS_SIZE":"LARGE","OBJECT_ID":"2021-044C","MEAN_ANOMALY":"296.0580","PERIOD":"95.593","TLE_LINE1":"1 48640U 21044C   22030.63525987 -.00004551  00000-0 -28685-3 0  9994","FILE":"3287903","OBJECT_NAME":"STARLINK-2736","LAUNCH_DATE":"2021-05-26","CLASSIFICATION_TYPE":"U","MEAN_MOTION_DDOT":"0.0000000000000","COUNTRY_CODE":"US","TLE_LINE2":"2 48640  53.0572   6.1390 0001462  64.0560 296.0580 15.06393710 37835","REV_AT_EPOCH":"3783","ECCENTRICITY":"0.00014620","BSTAR":"-0.00028685000000","ELEMENT_SET_NO":"999","NORAD_CAT_ID":"48640","SEMIMAJOR_AXIS":"6925.368","MEAN_ELEMENT_THEORY":"SGP4","EPOCH":"2022-01-30T15:14:46.452768","RA_OF_ASC_NODE":"6.1390","INCLINATION":"53.0572","APOAPSIS":"548.245","EPHEMERIS_TYPE":"0","ARG_OF_PERICENTER":"64.0560","TIME_SYSTEM":"UTC","DECAY_DATE":null,"SITE":"AFETR","GP_ID":"194984535","MEAN_MOTION_DOT":"-0.00004551"},{"TLE_LINE2":"2 48641  53.0562  10.6633 0001493  63.2357 296.8784 15.06403021 37789","REV_AT_EPOCH":"3778","COUNTRY_CODE":"US","NORAD_CAT_ID":"48641","SEMIMAJOR_AXIS":"6925.339","MEAN_ELEMENT_THEORY":"SGP4","ELEMENT_SET_NO":"999","BSTAR":"0.00020445000000","ECCENTRICITY":"0.00014930","EPOCH":"2022-01-30T17:46:43.608000","RA_OF_ASC_NODE":"10.6633","INCLINATION":"53.0562","DECAY_DATE":null,"TIME_SYSTEM":"UTC","EPHEMERIS_TYPE":"0","APOAPSIS":"548.238","ARG_OF_PERICENTER":"63.2357","GP_ID":"194984785","SITE":"AFETR","MEAN_MOTION_DOT":"0.00002765","MEAN_MOTION":"15.06403021","PERIAPSIS":"546.170","REF_FRAME":"TEME","CENTER_NAME":"EARTH","OBJECT_TYPE":"PAYLOAD","OBJECT_ID":"2021-044D","MEAN_ANOMALY":"296.8784","RCS_SIZE":"LARGE","OBJECT_NAME":"STARLINK-2754","FILE":"3287903","PERIOD":"95.592","TLE_LINE1":"1 48641U 21044D   22030.74078250  .00002765  00000-0  20445-3 0  9992","LAUNCH_DATE":"2021-05-26","CLASSIFICATION_TYPE":"U","MEAN_MOTION_DDOT":"0.0000000000000"},{"MEAN_MOTION_DDOT":"0.0000000000000","CLASSIFICATION_TYPE":"U","LAUNCH_DATE":"2021-05-26","TLE_LINE1":"1 48642U 21044E   22030.42285240  .00001879  00000-0  14499-3 0  9994","PERIOD":"95.592","OBJECT_NAME":"STARLINK-2646","FILE":"3287677","MEAN_ANOMALY":"289.8973","OBJECT_ID":"2021-044E","RCS_SIZE":"LARGE","CENTER_NAME":"EARTH","OBJECT_TYPE":"PAYLOAD","REF_FRAME":"TEME","PERIAPSIS":"546.088","MEAN_MOTION":"15.06397772","MEAN_MOTION_DOT":"0.00001879","SITE":"AFETR","GP_ID":"194954195","TIME_SYSTEM":"UTC","APOAPSIS":"548.353","EPHEMERIS_TYPE":"0","ARG_OF_PERICENTER":"70.2192","DECAY_DATE":null,"INCLINATION":"53.0572","RA_OF_ASC_NODE":"12.0822","EPOCH":"2022-01-30T10:08:54.447360","NORAD_CAT_ID":"48642","SEMIMAJOR_AXIS":"6925.355","MEAN_ELEMENT_THEORY":"SGP4","ECCENTRICITY":"0.00016350","BSTAR":"0.00014499000000","ELEMENT_SET_NO":"999","TLE_LINE2":"2 48642  53.0572  12.0822 0001635  70.2192 289.8973 15.06397772 37732","REV_AT_EPOCH":"3773","COUNTRY_CODE":"US"}];
